CCSDS_OMM_VERS = 2.0
CREATION_DATE  = 
ORIGINATOR     = 

OBJECT_NAME    = STARLINK-36698
OBJECT_ID      = 2026-025S
CENTER_NAME    = EARTH
REF_FRAME      = TEME
TIME_SYSTEM    = UTC
MEAN_ELEMENT_THEORY = SGP/SGP4

EPOCH          = 2026-03-02T17:58:36.697440
MEAN_MOTION    = 15.81027112
ECCENTRICITY   = .0002673
INCLINATION    = 97.2860
RA_OF_ASC_NODE = 173.0761
ARG_OF_PERICENTER = 59.0223
MEAN_ANOMALY   = 301.1308

EPHEMERIS_TYPE = 0
CLASSIFICATION_TYPE = U
NORAD_CAT_ID   = 67709
ELEMENT_SET_NO = 999
REV_AT_EPOCH   = 485
BSTAR          = .30793E-2
MEAN_MOTION_DOT = .641272E-2
MEAN_MOTION_DDOT = 0

CCSDS_OMM_VERS = 2.0
CREATION_DATE  = 
ORIGINATOR     = 

OBJECT_NAME    = STARLINK-36344
OBJECT_ID      = 2026-025T
CENTER_NAME    = EARTH
REF_FRAME      = TEME
TIME_SYSTEM    = UTC
MEAN_ELEMENT_THEORY = SGP/SGP4

EPOCH          = 2026-03-02T20:00:01.999008
MEAN_MOTION    = 15.75196126
ECCENTRICITY   = .0001684
INCLINATION    = 97.2849
RA_OF_ASC_NODE = 173.1481
ARG_OF_PERICENTER = 75.2617
MEAN_ANOMALY   = 0.4900

EPHEMERIS_TYPE = 0
CLASSIFICATION_TYPE = U
NORAD_CAT_ID   = 67710
ELEMENT_SET_NO = 999
REV_AT_EPOCH   = 491
BSTAR          = -.11222E-3
MEAN_MOTION_DOT = -.1684E-3
MEAN_MOTION_DDOT = 0

CCSDS_OMM_VERS = 2.0
CREATION_DATE  = 
ORIGINATOR     = 

OBJECT_NAME    = STARLINK-36687
OBJECT_ID      = 2026-025U
CENTER_NAME    = EARTH
REF_FRAME      = TEME
TIME_SYSTEM    = UTC
MEAN_ELEMENT_THEORY = SGP/SGP4

EPOCH          = 2026-03-02T18:01:56.124192
MEAN_MOTION    = 15.81015233
ECCENTRICITY   = .0002853
INCLINATION    = 97.2858
RA_OF_ASC_NODE = 173.0728
ARG_OF_PERICENTER = 51.8254
MEAN_ANOMALY   = 308.3271

EPHEMERIS_TYPE = 0
CLASSIFICATION_TYPE = U
NORAD_CAT_ID   = 67711
ELEMENT_SET_NO = 999
REV_AT_EPOCH   = 486
BSTAR          = .29426E-2
MEAN_MOTION_DOT = .610245E-2
MEAN_MOTION_DDOT = 0

CCSDS_OMM_VERS = 2.0
CREATION_DATE  = 
ORIGINATOR     = 

OBJECT_NAME    = STARLINK-36705
OBJECT_ID      = 2026-025V
CENTER_NAME    = EARTH
REF_FRAME      = TEME
TIME_SYSTEM    = UTC
MEAN_ELEMENT_THEORY = SGP/SGP4

EPOCH          = 2026-03-02T18:21:01.230912
MEAN_MOTION    = 15.75289619
ECCENTRICITY   = .000029
INCLINATION    = 97.2864
RA_OF_ASC_NODE = 173.0526
ARG_OF_PERICENTER = 349.4647
MEAN_ANOMALY   = 10.6612

EPHEMERIS_TYPE = 0
CLASSIFICATION_TYPE = U
NORAD_CAT_ID   = 67712
ELEMENT_SET_NO = 999
REV_AT_EPOCH   = 485
BSTAR          = .26242E-2
MEAN_MOTION_DOT = .412638E-2
MEAN_MOTION_DDOT = 0

CCSDS_OMM_VERS = 2.0
CREATION_DATE  = 
ORIGINATOR     = 

OBJECT_NAME    = STARLINK-36708
OBJECT_ID      = 2026-025W
CENTER_NAME    = EARTH
REF_FRAME      = TEME
TIME_SYSTEM    = UTC
MEAN_ELEMENT_THEORY = SGP/SGP4

EPOCH          = 2026-03-02T19:17:28.568832
MEAN_MOTION    = 15.80802874
ECCENTRICITY   = .0001515
INCLINATION    = 97.2871
RA_OF_ASC_NODE = 173.1528
ARG_OF_PERICENTER = 112.6509
MEAN_ANOMALY   = 247.4920

EPHEMERIS_TYPE = 0
CLASSIFICATION_TYPE = U
NORAD_CAT_ID   = 67713
ELEMENT_SET_NO = 999
REV_AT_EPOCH   = 486
BSTAR          = .97995E-3
MEAN_MOTION_DOT = .191632E-2
MEAN_MOTION_DDOT = 0

CCSDS_OMM_VERS = 2.0
CREATION_DATE  = 
ORIGINATOR     = 

OBJECT_NAME    = STARLINK-36702
OBJECT_ID      = 2026-025X
CENTER_NAME    = EARTH
REF_FRAME      = TEME
TIME_SYSTEM    = UTC
MEAN_ELEMENT_THEORY = SGP/SGP4

EPOCH          = 2026-03-02T19:20:19.523328
MEAN_MOTION    = 15.80859796
ECCENTRICITY   = .0001576
INCLINATION    = 97.2872
RA_OF_ASC_NODE = 173.1501
ARG_OF_PERICENTER = 93.7702
MEAN_ANOMALY   = 266.3747

EPHEMERIS_TYPE = 0
CLASSIFICATION_TYPE = U
NORAD_CAT_ID   = 67714
ELEMENT_SET_NO = 999
REV_AT_EPOCH   = 486
BSTAR          = .11337E-2
MEAN_MOTION_DOT = .223113E-2
MEAN_MOTION_DDOT = 0

CCSDS_OMM_VERS = 2.0
CREATION_DATE  = 
ORIGINATOR     = 

OBJECT_NAME    = STARLINK-36718
OBJECT_ID      = 2026-025Y
CENTER_NAME    = EARTH
REF_FRAME      = TEME
TIME_SYSTEM    = UTC
MEAN_ELEMENT_THEORY = SGP/SGP4

EPOCH          = 2026-03-02T19:11:27.284640
MEAN_MOTION    = 15.81111215
ECCENTRICITY   = .0002702
INCLINATION    = 97.2870
RA_OF_ASC_NODE = 173.1589
ARG_OF_PERICENTER = 26.2208
MEAN_ANOMALY   = 333.9197

EPHEMERIS_TYPE = 0
CLASSIFICATION_TYPE = U
NORAD_CAT_ID   = 67715
ELEMENT_SET_NO = 999
REV_AT_EPOCH   = 486
BSTAR          = .34768E-2
MEAN_MOTION_DOT = .734805E-2
MEAN_MOTION_DDOT = 0

CCSDS_OMM_VERS = 2.0
CREATION_DATE  = 
ORIGINATOR     = 

OBJECT_NAME    = STARLINK-36715
OBJECT_ID      = 2026-025Z
CENTER_NAME    = EARTH
REF_FRAME      = TEME
TIME_SYSTEM    = UTC
MEAN_ELEMENT_THEORY = SGP/SGP4

EPOCH          = 2026-03-02T19:14:24.445248
MEAN_MOTION    = 15.80820132
ECCENTRICITY   = .000092
INCLINATION    = 97.2873
RA_OF_ASC_NODE = 173.1561
ARG_OF_PERICENTER = 134.9417
MEAN_ANOMALY   = 225.1926

EPHEMERIS_TYPE = 0
CLASSIFICATION_TYPE = U
NORAD_CAT_ID   = 67716
ELEMENT_SET_NO = 999
REV_AT_EPOCH   = 486
BSTAR          = .14608E-2
MEAN_MOTION_DOT = .289201E-2
MEAN_MOTION_DDOT = 0

CCSDS_OMM_VERS = 2.0
CREATION_DATE  = 
ORIGINATOR     = 

OBJECT_NAME    = STARLINK-36385
OBJECT_ID      = 2026-025AA
CENTER_NAME    = EARTH
REF_FRAME      = TEME
TIME_SYSTEM    = UTC
MEAN_ELEMENT_THEORY = SGP/SGP4

EPOCH          = 2026-03-02T13:18:47.420064
MEAN_MOTION    = 15.80910300
ECCENTRICITY   = .0002486
INCLINATION    = 97.2870
RA_OF_ASC_NODE = 172.8801
ARG_OF_PERICENTER = 106.3663
MEAN_ANOMALY   = 253.7879

EPHEMERIS_TYPE = 0
CLASSIFICATION_TYPE = U
NORAD_CAT_ID   = 67717
ELEMENT_SET_NO = 999
REV_AT_EPOCH   = 482
BSTAR          = .11679E-2
MEAN_MOTION_DOT = .230579E-2
MEAN_MOTION_DDOT = 0

CCSDS_OMM_VERS = 2.0
CREATION_DATE  = 
ORIGINATOR     = 

OBJECT_NAME    = CZ-2F DEB
OBJECT_ID      = 2026-024E
CENTER_NAME    = EARTH
REF_FRAME      = TEME
TIME_SYSTEM    = UTC
MEAN_ELEMENT_THEORY = SGP/SGP4

EPOCH          = 2026-02-27T12:10:33.167712
MEAN_MOTION    = 15.20915897
ECCENTRICITY   = .02465096
INCLINATION    = 50.3169
RA_OF_ASC_NODE = 68.5830
ARG_OF_PERICENTER = 240.0171
MEAN_ANOMALY   = 117.6115

EPHEMERIS_TYPE = 0
CLASSIFICATION_TYPE = U
NORAD_CAT_ID   = 67718
ELEMENT_SET_NO = 999
REV_AT_EPOCH   = 308
BSTAR          = .35886422E-2
MEAN_MOTION_DOT = .191604E-2
MEAN_MOTION_DDOT = 0

CCSDS_OMM_VERS = 2.0
CREATION_DATE  = 
ORIGINATOR     = 

OBJECT_NAME    = CZ-2F DEB
OBJECT_ID      = 2026-024F
CENTER_NAME    = EARTH
REF_FRAME      = TEME
TIME_SYSTEM    = UTC
MEAN_ELEMENT_THEORY = SGP/SGP4

EPOCH          = 2026-03-02T10:22:25.798656
MEAN_MOTION    = 15.01302068
ECCENTRICITY   = .03190807
INCLINATION    = 49.7916
RA_OF_ASC_NODE = 56.8116
ARG_OF_PERICENTER = 242.3827
MEAN_ANOMALY   = 114.4383

EPHEMERIS_TYPE = 0
CLASSIFICATION_TYPE = U
NORAD_CAT_ID   = 67719
ELEMENT_SET_NO = 999
REV_AT_EPOCH   = 315
BSTAR          = .37051267E-2
MEAN_MOTION_DOT = .151812E-2
MEAN_MOTION_DDOT = 0

CCSDS_OMM_VERS = 2.0
CREATION_DATE  = 
ORIGINATOR     = 

OBJECT_NAME    = CZ-2F DEB
OBJECT_ID      = 2026-024G
CENTER_NAME    = EARTH
REF_FRAME      = TEME
TIME_SYSTEM    = UTC
MEAN_ELEMENT_THEORY = SGP/SGP4

EPOCH          = 2026-03-02T11:22:00.164928
MEAN_MOTION    = 14.98647187
ECCENTRICITY   = .03297382
INCLINATION    = 49.8314
RA_OF_ASC_NODE = 57.1110
ARG_OF_PERICENTER = 238.7718
MEAN_ANOMALY   = 118.0527

EPHEMERIS_TYPE = 0
CLASSIFICATION_TYPE = U
NORAD_CAT_ID   = 67720
ELEMENT_SET_NO = 999
REV_AT_EPOCH   = 347
BSTAR          = .37058245E-2
MEAN_MOTION_DOT = .147795E-2
MEAN_MOTION_DDOT = 0

